<?xml version="1.0" encoding="UTF-8"?>
<kml xmlns="http://www.opengis.net/kml/2.2">
  <Document>
    <name>Edmonton YSA Ward Boundaries - Aged 18-25</name>
    <description/>
    <Style id="poly-0288D1-1200-77-nodesc-normal">
      <LineStyle>
        <color>ffd18802</color>
        <width>1.2</width>
      </LineStyle>
      <PolyStyle>
        <color>4dd18802</color>
        <fill>1</fill>
        <outline>1</outline>
      </PolyStyle>
      <BalloonStyle>
        <text><![CDATA[<h3>$[name]</h3>]]></text>
      </BalloonStyle>
    </Style>
    <Style id="poly-0288D1-1200-77-nodesc-highlight">
      <LineStyle>
        <color>ffd18802</color>
        <width>1.8</width>
      </LineStyle>
      <PolyStyle>
        <color>4dd18802</color>
        <fill>1</fill>
        <outline>1</outline>
      </PolyStyle>
      <BalloonStyle>
        <text><![CDATA[<h3>$[name]</h3>]]></text>
      </BalloonStyle>
    </Style>
    <StyleMap id="poly-0288D1-1200-77-nodesc">
      <Pair>
        <key>normal</key>
        <styleUrl>#poly-0288D1-1200-77-nodesc-normal</styleUrl>
      </Pair>
      <Pair>
        <key>highlight</key>
        <styleUrl>#poly-0288D1-1200-77-nodesc-highlight</styleUrl>
      </Pair>
    </StyleMap>
    <Style id="poly-7CB342-1200-77-nodesc-normal">
      <LineStyle>
        <color>ff42b37c</color>
        <width>1.2</width>
      </LineStyle>
      <PolyStyle>
        <color>4d42b37c</color>
        <fill>1</fill>
        <outline>1</outline>
      </PolyStyle>
      <BalloonStyle>
        <text><![CDATA[<h3>$[name]</h3>]]></text>
      </BalloonStyle>
    </Style>
    <Style id="poly-7CB342-1200-77-nodesc-highlight">
      <LineStyle>
        <color>ff42b37c</color>
        <width>1.8</width>
      </LineStyle>
      <PolyStyle>
        <color>4d42b37c</color>
        <fill>1</fill>
        <outline>1</outline>
      </PolyStyle>
      <BalloonStyle>
        <text><![CDATA[<h3>$[name]</h3>]]></text>
      </BalloonStyle>
    </Style>
    <StyleMap id="poly-7CB342-1200-77-nodesc">
      <Pair>
        <key>normal</key>
        <styleUrl>#poly-7CB342-1200-77-nodesc-normal</styleUrl>
      </Pair>
      <Pair>
        <key>highlight</key>
        <styleUrl>#poly-7CB342-1200-77-nodesc-highlight</styleUrl>
      </Pair>
    </StyleMap>
    <Style id="poly-FF5252-1200-77-nodesc-normal">
      <LineStyle>
        <color>ff5252ff</color>
        <width>1.2</width>
      </LineStyle>
      <PolyStyle>
        <color>4d5252ff</color>
        <fill>1</fill>
        <outline>1</outline>
      </PolyStyle>
      <BalloonStyle>
        <text><![CDATA[<h3>$[name]</h3>]]></text>
      </BalloonStyle>
    </Style>
    <Style id="poly-FF5252-1200-77-nodesc-highlight">
      <LineStyle>
        <color>ff5252ff</color>
        <width>1.8</width>
      </LineStyle>
      <PolyStyle>
        <color>4d5252ff</color>
        <fill>1</fill>
        <outline>1</outline>
      </PolyStyle>
      <BalloonStyle>
        <text><![CDATA[<h3>$[name]</h3>]]></text>
      </BalloonStyle>
    </Style>
    <StyleMap id="poly-FF5252-1200-77-nodesc">
      <Pair>
        <key>normal</key>
        <styleUrl>#poly-FF5252-1200-77-nodesc-normal</styleUrl>
      </Pair>
      <Pair>
        <key>highlight</key>
        <styleUrl>#poly-FF5252-1200-77-nodesc-highlight</styleUrl>
      </Pair>
    </StyleMap>
    <Style id="poly-FFEA00-1200-77-nodesc-normal">
      <LineStyle>
        <color>ff00eaff</color>
        <width>1.2</width>
      </LineStyle>
      <PolyStyle>
        <color>4d00eaff</color>
        <fill>1</fill>
        <outline>1</outline>
      </PolyStyle>
      <BalloonStyle>
        <text><![CDATA[<h3>$[name]</h3>]]></text>
      </BalloonStyle>
    </Style>
    <Style id="poly-FFEA00-1200-77-nodesc-highlight">
      <LineStyle>
        <color>ff00eaff</color>
        <width>1.8</width>
      </LineStyle>
      <PolyStyle>
        <color>4d00eaff</color>
        <fill>1</fill>
        <outline>1</outline>
      </PolyStyle>
      <BalloonStyle>
        <text><![CDATA[<h3>$[name]</h3>]]></text>
      </BalloonStyle>
    </Style>
    <StyleMap id="poly-FFEA00-1200-77-nodesc">
      <Pair>
        <key>normal</key>
        <styleUrl>#poly-FFEA00-1200-77-nodesc-normal</styleUrl>
      </Pair>
      <Pair>
        <key>highlight</key>
        <styleUrl>#poly-FFEA00-1200-77-nodesc-highlight</styleUrl>
      </Pair>
    </StyleMap>
    <Folder>
      <name>Untitled layer</name>
      <Placemark>
        <name>Garneau Ward</name>
        <styleUrl>#poly-FFEA00-1200-77-nodesc</styleUrl>
        <Polygon>
          <outerBoundaryIs>
            <LinearRing>
              <tessellate>1</tessellate>
              <coordinates>
                -113.4555157,53.5251911,0
                -113.4540654,53.5251818,0
                -113.4303582,53.5252332,0
                -113.4287382,53.5249206,0
                -113.4186424,53.5217251,0
                -113.4182025,53.4872482,0
                -113.4095014,53.4876439,0
                -113.4011329,53.4876567,0
                -113.3940197,53.4872418,0
                -113.3887733,53.486431,0
                -113.3809949,53.4841073,0
                -113.3773363,53.4830539,0
                -113.37371,53.4823771,0
                -113.3703089,53.4820771,0
                -113.3686782,53.4820962,0
                -113.3663715,53.4821984,0
                -113.3616937,53.4826644,0
                -113.357252,53.4829453,0
                -113.3482826,53.4829198,0
                -113.3427037,53.4828815,0
                -113.3433045,53.4765478,0
                -113.3439697,53.4708581,0
                -113.3441306,53.4647142,0
                -113.3440126,53.460045,0
                -113.3440126,53.4573109,0
                -113.3404935,53.4535417,0
                -113.3343995,53.448801,0
                -113.3235849,53.4467436,0
                -113.3081997,53.4467563,0
                -113.2816351,53.4467691,0
                -113.246187,53.4467436,0
                -113.2399858,53.4463346,0
                -113.2326687,53.4447883,0
                -113.2069839,53.4383594,0
                -113.1971777,53.4356239,0
                -113.1902469,53.43308,0
                -113.1779946,53.4285544,0
                -113.1572235,53.4209083,0
                -113.1473959,53.4175451,0
                -113.140787,53.4148722,0
                -113.1336845,53.4116492,0
                -113.10531,53.3982835,0
                -113.1010399,53.3965947,0
                -113.0973063,53.3959038,0
                -113.0950103,53.395699,0
                -113.0041371,53.3959166,0
                -112.9464159,53.3960061,0
                -112.8984151,53.3961085,0
                -112.8942523,53.3958014,0
                -112.8883944,53.3945987,0
                -112.880734,53.391758,0
                -112.8706703,53.3879574,0
                -112.8520451,53.3809056,0
                -112.8285275,53.3720219,0
                -112.8251157,53.3709721,0
                -112.8197298,53.3695383,0
                -112.8143225,53.3684116,0
                -112.808765,53.3676306,0
                -112.8045592,53.3671697,0
                -112.8003321,53.3669648,0
                -112.6803408,53.3668752,0
                -112.6772567,53.3666638,0
                -112.6737377,53.3655627,0
                -112.6679012,53.3625665,0
                -112.6626655,53.3600566,0
                -112.6600477,53.3594932,0
                -112.657344,53.3593139,0
                -112.6452419,53.3592883,0
                -112.6412508,53.3587504,0
                -112.6347706,53.3570344,0
                -112.6312086,53.3554976,0
                -112.6289341,53.3539351,0
                -112.6195785,53.3460706,0
                -112.6164457,53.3435854,0
                -112.6127121,53.3417663,0
                -112.6102659,53.3407158,0
                -112.5948164,53.3362316,0
                -112.5785515,53.3314137,0
                -112.5761911,53.3304142,0
                -112.5740883,53.3294146,0
                -112.5619861,53.3258263,0
                -112.5532314,53.3231862,0
                -112.5506136,53.3226991,0
                -112.5467512,53.3221095,0
                -112.5015613,53.3088034,0
                -112.4504921,53.293672,0
                -112.4486896,53.293005,0
                -112.4458572,53.2916711,0
                -112.4409219,53.290055,0
                -112.4198934,53.2838721,0
                -112.416546,53.2831281,0
                -112.4134561,53.2827432,0
                -112.4062463,53.2805879,0
                -112.3602411,53.2669352,0
                -112.3458645,53.2626742,0
                -112.3434183,53.2615191,0
                -112.3406717,53.2604152,0
                -112.3230335,53.255101,0
                -112.3191282,53.2542794,0
                -112.3150942,53.2535862,0
                -112.2934648,53.2471669,0
                -112.2576734,53.2365602,0
                -112.2505212,53.2339934,0
                -112.2458005,53.2308081,0
                -112.2207379,53.2224327,0
                -112.2148156,53.2215591,0
                -112.2078633,53.2212508,0
                -112.2007394,53.2196577,0
                -112.0600629,53.1774449,0
                -112.0565438,53.1762103,0
                -112.0507073,53.1738953,0
                -112.0507073,53.3588547,0
                -112.0490766,53.3611085,0
                -112.0427251,53.3639256,0
                -112.0416093,53.3668961,0
                -112.0415235,53.4766601,0
                -112.0258164,53.476609,0
                -112.007792,53.4801846,0
                -111.995604,53.4827895,0
                -111.9892526,53.4831981,0
                -111.9412732,53.483147,0
                -111.9343209,53.4825341,0
                -111.9253087,53.4802868,0
                -111.88205,53.464092,0
                -111.8756127,53.4605661,0
                -111.8626523,53.4521336,0
                -111.8563008,53.4483,0
                -111.8398213,53.4418077,0
                -111.8344998,53.4395582,0
                -111.7962194,53.4323487,0
                -111.7959619,53.5210272,0
                -111.7943311,53.5244971,0
                -111.7899537,53.5271503,0
                -111.7752767,53.5325582,0
                -111.7715859,53.5363841,0
                -111.7715859,53.5586697,0
                -111.7708993,53.6765317,0
                -111.7688394,53.6813105,0
                -111.763947,53.6851738,0
                -111.7532182,53.6913239,0
                -111.7484117,53.694983,0
                -111.7460942,53.6998105,0
                -111.7461801,53.7155596,0
                -111.7837739,53.7155088,0
                -111.7905545,53.7163723,0
                -111.8387055,53.7313536,0
                -111.8429112,53.7342477,0
                -111.8732095,53.7659172,0
                -111.8766427,53.7674899,0
                -111.903336,53.7727656,0
                -111.9081426,53.77307,0
                -112.0065904,53.7732222,0
                -112.0119119,53.7740845,0
                -112.0158601,53.7761641,0
                -112.0210099,53.7735265,0
                -112.0240998,53.7732729,0
                -112.3318028,53.7734251,0
                -112.3318028,53.8896252,0
                -112.455399,53.8900804,0
                -112.4557424,53.9594734,0
                -112.4562573,53.9629072,0
                -112.4592614,53.9668456,0
                -112.4749684,53.9839583,0
                -112.4771142,53.9932941,0
                -112.4802041,54.0110011,0
                -112.4804616,54.0373711,0
                -112.4805474,54.0610042,0
                -112.4756551,54.0684088,0
                -112.4757409,54.1217636,0
                -112.4806333,54.1189969,0
                -112.4863839,54.1078779,0
                -112.4885297,54.1033489,0
                -112.492907,54.1011345,0
                -112.4996877,54.1003293,0
                -112.7929711,54.1003796,0
                -112.7975202,54.1002286,0
                -112.8024125,54.0987691,0
                -112.9242921,54.0649334,0
                -112.9266095,54.06448,0
                -112.9506421,54.06448,0
                -112.9543328,54.0639763,0
                -112.9578519,54.0624147,0
                -112.9703832,54.0523386,0
                -112.9720998,54.0513813,0
                -113.0562997,54.0279948,0
                -113.0595613,54.0274402,0
                -113.1266809,54.0209864,0
                -113.1324315,54.0197762,0
                -113.1451345,54.0150863,0
                -113.147881,54.0131698,0
                -113.1491685,54.0106985,0
                -113.1491685,53.9542717,0
                -113.1506276,53.9512917,0
                -113.1559491,53.9490188,0
                -113.1668496,53.9489177,0
                -113.2665849,53.9489177,0
                -113.2719922,53.9476549,0
                -113.2766271,53.9443209,0
                -113.2807469,53.9408856,0
                -113.2876134,53.9370963,0
                -113.3152509,53.9240585,0
                -113.3196282,53.9205204,0
                -113.3220315,53.9171336,0
                -113.3227181,53.9145049,0
                -113.3226323,53.8745485,0
                -113.3222032,53.8677167,0
                -113.322289,53.8442776,0
                -113.3301854,53.8382512,0
                -113.3361077,53.8346045,0
                -113.3422017,53.8330344,0
                -113.3480382,53.8326291,0
                -113.4846807,53.8327304,0
                -113.4903455,53.8314641,0
                -113.494122,53.8279182,0
                -113.496182,53.8234093,0
                -113.4959245,53.721756,0
                -113.4972119,53.7190135,0
                -113.5021901,53.7140358,0
                -113.5036492,53.7116483,0
                -113.5038209,53.6635651,0
                -113.5028768,53.6607171,0
                -113.4960103,53.6562411,0
                -113.4924054,53.6526295,0
                -113.4912038,53.6488141,0
                -113.4918046,53.6433701,0
                -113.4919763,53.6391977,0
                -113.4917617,53.606898,0
                -113.4919333,53.5942666,0
                -113.4920192,53.5857842,0
                -113.4920192,53.5818863,0
                -113.4923625,53.5798225,0
                -113.4922775,53.571212,0
                -113.4921434,53.5704443,0
                -113.4949597,53.5703711,0
                -113.495346,53.5697308,0
                -113.4993424,53.5679499,0
                -113.5054954,53.565379,0
                -113.5084244,53.5641269,0
                -113.5083979,53.559009,0
                -113.5084301,53.5518262,0
                -113.5084516,53.5420665,0
                -113.5084408,53.5343452,0
                -113.509224,53.5339371,0
                -113.5097283,53.5323875,0
                -113.5109621,53.5302066,0
                -113.5204357,53.5310803,0
                -113.5273665,53.5323046,0
                -113.5305637,53.5330954,0
                -113.5307118,53.5308243,0
                -113.5306759,53.5229694,0
                -113.5208161,53.5229184,0
                -113.5209126,53.5202231,0
                -113.5208697,53.5199297,0
                -113.5207517,53.5194194,0
                -113.5207732,53.5181053,0
                -113.4604556,53.5180415,0
                -113.4550161,53.5180033,0
                -113.4550483,53.5225385,0
                -113.4553594,53.5230169,0
                -113.4574301,53.5251408,0
                -113.4555157,53.5251911,0
              </coordinates>
            </LinearRing>
          </outerBoundaryIs>
        </Polygon>
      </Placemark>
      <Placemark>
        <name>Gateway Ward</name>
        <styleUrl>#poly-FF5252-1200-77-nodesc</styleUrl>
        <Polygon>
          <outerBoundaryIs>
            <LinearRing>
              <tessellate>1</tessellate>
              <coordinates>
                -112.0344059,53.1687571,0
                -112.0507073,53.1738953,0
                -112.1958198,53.2180094,0
                -112.2078633,53.2212508,0
                -112.233242,53.2258204,0
                -112.2480049,53.2330135,0
                -112.4134561,53.2827432,0
                -112.5827445,53.33277,0
                -112.601284,53.3376903,0
                -112.6164457,53.3435854,0
                -112.6321407,53.3559946,0
                -112.6393505,53.3582485,0
                -112.6443287,53.3592218,0
                -112.657344,53.3593139,0
                -112.6616665,53.3598364,0
                -112.6679012,53.3625665,0
                -112.6748844,53.3662388,0
                -112.6790901,53.3668534,0
                -112.7857776,53.3668534,0
                -112.8037163,53.3671094,0
                -112.8189083,53.3692092,0
                -112.8296371,53.3723329,0
                -112.8352161,53.374586,0
                -112.8739258,53.3890746,0
                -112.886457,53.3940906,0
                -112.8922935,53.3954725,0
                -112.8984151,53.3961085,0
                -113.0950103,53.395699,0
                -113.0989738,53.3960355,0
                -113.102922,53.3972126,0
                -113.1339927,53.4117446,0
                -113.1438633,53.4161953,0
                -113.1519314,53.4190599,0
                -113.1933018,53.4341469,0
                -113.1990524,53.4361922,0
                -113.2145878,53.4402058,0
                -113.2399858,53.4463346,0
                -113.246187,53.4467436,0
                -113.2769438,53.4466471,0
                -113.3235849,53.4467436,0
                -113.3343995,53.448801,0
                -113.3440126,53.4573109,0
                -113.3426471,53.4828704,0
                -113.3531721,53.4829246,0
                -113.357292,53.4829438,0
                -113.3600547,53.4827555,0
                -113.3621736,53.4826182,0
                -113.3663715,53.4821984,0
                -113.3703544,53.4820819,0
                -113.3715238,53.4821777,0
                -113.37371,53.4823771,0
                -113.3773363,53.4830539,0
                -113.3887733,53.486431,0
                -113.3940197,53.4872418,0
                -113.4011329,53.4876567,0
                -113.4095014,53.4876439,0
                -113.4182025,53.4872482,0
                -113.4186424,53.5217251,0
                -113.4303582,53.5252332,0
                -113.4574301,53.5251408,0
                -113.4546564,53.5229259,0
                -113.4550161,53.5180033,0
                -113.512078,53.5180953,0
                -113.512078,53.5166473,0
                -113.5120029,53.5146952,0
                -113.5120565,53.5122709,0
                -113.502658,53.5122773,0
                -113.5004586,53.5123411,0
                -113.4976799,53.5123602,0
                -113.4977013,53.505514,0
                -113.4977442,53.5026744,0
                -113.4976906,53.5025149,0
                -113.4976262,53.4998857,0
                -113.4987206,53.4997197,0
                -113.4999651,53.4991135,0
                -113.5016924,53.4983795,0
                -113.5024542,53.4981434,0
                -113.5043854,53.4981817,0
                -113.5044242,53.4950046,0
                -113.5043974,53.4933642,0
                -113.5043379,53.4922795,0
                -113.5043808,53.4903263,0
                -113.5043594,53.4851555,0
                -113.5042306,53.4779793,0
                -113.5042306,53.476664,0
                -113.5047456,53.4760893,0
                -113.5061618,53.474991,0
                -113.5075137,53.4756423,0
                -113.5086295,53.4757956,0
                -113.5150239,53.4757956,0
                -113.5205814,53.4757828,0
                -113.525109,53.4758722,0
                -113.5285636,53.4761915,0
                -113.5318252,53.4763319,0
                -113.5386702,53.4763192,0
                -113.5387775,53.4759616,0
                -113.5388633,53.4634316,0
                -113.5389062,53.4615026,0
                -113.5384771,53.460404,0
                -113.5367819,53.4583982,0
                -113.5348078,53.4563029,0
                -113.5343572,53.4555618,0
                -113.533971,53.454118,0
                -113.5347649,53.4519202,0
                -113.5290143,53.4484445,0
                -113.5260102,53.4477799,0
                -113.5202591,53.4464765,0
                -113.5159977,53.4454109,0
                -113.5083291,53.4422079,0
                -113.5082933,53.4353105,0
                -113.5012123,53.4363842,0
                -113.4920284,53.4372534,0
                -113.491728,53.4355917,0
                -113.4928009,53.4295066,0
                -113.4934017,53.4193543,0
                -113.4949466,53.4155434,0
                -113.5000106,53.4097624,0
                -113.503401,53.4053366,0
                -113.5115549,53.3963301,0
                -113.5229274,53.3958439,0
                -113.5274765,53.395959,0
                -113.5748335,53.395895,0
                -113.6454884,53.3957386,0
                -113.6451451,53.3912858,0
                -113.6502091,53.3846824,0
                -113.6572472,53.3813548,0
                -113.6657445,53.381406,0
                -113.6782758,53.3843753,0
                -113.6853139,53.3839145,0
                -113.6909787,53.3817131,0
                -113.6925236,53.3761324,0
                -113.6905495,53.3712166,0
                -113.6851422,53.3658905,0
                -113.6863438,53.3594881,0
                -113.690292,53.3553388,0
                -113.698446,53.3546216,0
                -113.7029092,53.3562097,0
                -113.7049691,53.3600003,0
                -113.7042825,53.3644052,0
                -113.7043683,53.3686561,0
                -113.7078015,53.3714214,0
                -113.712608,53.3718311,0
                -113.7215344,53.3708069,0
                -113.7333791,53.3712678,0
                -113.7459103,53.3723432,0
                -113.7491719,53.3718311,0
                -113.7528626,53.3693218,0
                -113.7562958,53.3605126,0
                -113.7659089,53.3564146,0
                -113.7720887,53.3590783,0
                -113.7765519,53.3654296,0
                -113.7844483,53.3656344,0
                -113.7885682,53.3590783,0
                -113.8002412,53.3551852,0
                -113.8132874,53.3611272,0
                -113.8342301,53.3619467,0
                -113.8743989,53.3426836,0
                -113.9516465,53.3398139,0
                -113.9794556,53.3412488,0
                -113.9928452,53.3248472,0
                -114.0141312,53.3295633,0
                -114.0299241,53.3234118,0
                -114.0464036,53.328128,0
                -114.0577332,53.3473977,0
                -114.075586,53.3510867,0
                -114.1243378,53.346373,0
                -114.1837327,53.357644,0
                -114.2194382,53.3574391,0
                -114.2534272,53.3721895,0
                -114.2791764,53.3713702,0
                -114.2774598,53.3857063,0
                -114.2997758,53.3949198,0
                -114.2733399,53.4266398,0
                -114.3368546,53.4247987,0
                -114.3729035,53.4233666,0
                -114.3804566,53.3945103,0
                -114.4003693,53.3865253,0
                -114.4247452,53.3633809,0
                -114.3941895,53.3594881,0
                -114.4075791,53.3465779,0
                -114.4316117,53.3492423,0
                -114.4594208,53.3439134,0
                -114.4886033,53.3318187,0
                -114.5188157,53.3109009,0
                -114.5349519,53.3135675,0
                -114.5607011,53.3133624,0
                -114.5758073,53.3225915,0
                -114.6060197,53.3090548,0
                -114.6238724,53.3098753,0
                -114.6451585,53.3256675,0
                -114.7007767,53.3191052,0
                -114.713823,53.3047467,0
                -114.7447221,53.3201306,0
                -114.769098,53.3129521,0
                -114.7769944,53.3252573,0
                -114.7934739,53.3338689,0
                -114.8133866,53.3223864,0
                -114.799997,53.3113112,0
                -114.8188798,53.3133624,0
                -114.8724381,53.2799157,0
                -114.8820512,53.2714986,0
                -114.8672883,53.2503459,0
                -114.8865144,53.2439775,0
                -114.907457,53.2378136,0
                -114.9338929,53.2094484,0
                -114.92119,53.1954644,0
                -114.9342362,53.1880593,0
                -114.9647919,53.152044,0
                -114.9544923,53.1176468,0
                -114.9634187,53.097655,0
                -114.9816148,53.1028084,0
                -115.0231568,53.0856967,0
                -115.039293,53.0588815,0
                -115.0801484,53.0696096,0
                -115.0825516,53.0611511,0
                -115.1000611,53.0545482,0
                -115.2044312,53.0553737,0
                -115.2257172,53.032669,0
                -115.1992814,52.9713066,0
                -115.2119843,52.95497,0
                -115.2085511,52.9369718,0
                -115.2267472,52.9249689,0
                -115.2191941,52.9057159,0
                -115.1834885,52.8928758,0
                -115.1597993,52.8576495,0
                -115.1419465,52.8219797,0
                -115.1543061,52.8111901,0
                -115.1769654,52.8149253,0
                -115.1749055,52.7989447,0
                -115.1622025,52.786073,0
                -115.1488129,52.7632267,0
                -115.1093308,52.7553316,0
                -115.0880448,52.7351717,0
                -115.072252,52.7114667,0
                -115.0734266,52.6774589,0
                -115.0469908,52.6399745,0
                -114.6786055,52.6397662,0
                -114.6569761,52.6399746,0
                -114.2171797,52.6393495,0
                -114.217523,52.6689236,0
                -114.1220793,52.6689236,0
                -114.1224226,52.7566948,0
                -114.1045698,52.7562792,0
                -114.0980467,52.7579414,0
                -114.0990766,52.7814135,0
                -114.0939268,52.7853589,0
                -114.0798506,52.7857741,0
                -114.0740141,52.7874352,0
                -114.0743574,52.9594292,0
                -113.6469206,52.9598428,0
                -113.643144,52.9346048,0
                -113.6438307,52.8003065,0
                -113.6428007,52.6924436,0
                -113.6503647,52.6763836,0
                -113.6009262,52.6757591,0
                -113.5744904,52.6678482,0
                -113.531575,52.6680564,0
                -113.5308884,52.5212363,0
                -113.035817,52.5212363,0
                -113.0210541,52.5488026,0
                -112.9994248,52.5646662,0
                -112.9843186,52.5650836,0
                -112.9798554,52.5671704,0
                -112.9791687,52.5796896,0
                -112.6966141,52.579481,0
                -112.5853775,52.579481,0
                -112.5661515,52.5746824,0
                -112.5551651,52.5744737,0
                -112.5417755,52.5798982,0
                -112.3714875,52.5796896,0
                -112.3598145,52.5742651,0
                -112.3484848,52.5690485,0
                -112.3426483,52.5732218,0
                -112.3350952,52.5790637,0
                -112.1881531,52.5801068,0
                -112.1878098,52.4980422,0
                -112.1806,52.4946979,0
                -112.1854065,52.4848726,0
                -112.1850632,52.4773453,0
                -112.1881531,52.4714898,0
                -112.1884964,52.4384338,0
                -112.1884964,52.3244306,0
                -112.1864365,52.318135,0
                -112.1781967,52.3179252,0
                -112.1713303,52.3145672,0
                -112.1720169,52.2813934,0
                -112.1510743,52.2799231,0
                -112.1328781,52.2734112,0
                -112.0515107,52.2744616,0
                -112.0309113,52.2696296,0
                -111.9498871,52.240627,0
                -111.8650864,52.195404,0
                -111.8589066,52.1937204,0
                -111.8613098,52.198771,0
                -111.8623398,52.2200195,0
                -111.8434571,52.2303244,0
                -111.2210129,52.2301142,0
                -111.2131165,52.2269598,0
                -111.2031601,52.2233846,0
                -111.196637,52.2248568,0
                -111.185994,52.2296936,0
                -111.0012863,52.2303244,0
                -110.99236,52.2336888,0
                -110.980687,52.2374734,0
                -110.9336518,52.2370529,0
                -110.9257553,52.2328477,0
                -110.9182022,52.2305347,0
                -110.8378647,52.2305347,0
                -110.838208,52.293784,0
                -110.8337448,52.3032321,0
                -110.8203553,52.3177153,0
                -110.7527207,52.3172956,0
                -110.7273148,52.3086901,0
                -110.6967591,52.3095297,0
                -110.6850861,52.3124683,0
                -110.6737564,52.3177153,0
                -110.3537796,52.3172956,0
                -110.2971314,52.3177153,0
                -110.2930115,52.3210731,0
                -110.2930115,52.3393264,0
                -110.2899216,52.3460383,0
                -110.2813385,52.3454091,0
                -110.2751587,52.3487648,0
                -110.2686356,52.3498133,0
                -110.2696656,52.3611365,0
                -109.9998139,52.3607172,0
                -109.9799012,52.3496036,0
                -109.9713181,52.3479259,0
                -109.9593018,52.3468772,0
                -109.9596451,52.5026402,0
                -109.9630783,52.5103722,0
                -109.9857376,52.5408686,0
                -110.0049637,52.5690485,0
                -110.0458191,52.5911623,0
                -110.0519989,52.608887,0
                -110.0519989,52.632231,0
                -110.0568055,52.6434816,0
                -110.0530289,52.6526467,0
                -110.0533722,52.841974,0
                -110.0162934,52.8417666,0
                -110.01698,52.8542073,0
                -110.0293396,52.8685095,0
                -110.0293396,53.0306859,0
                -110.0108002,53.0434851,0
                -110.0046204,53.0511216,0
                -110.0049637,53.1611834,0
                -111.2241028,53.1615951,0
                -111.2230728,53.103096,0
                -111.5004776,53.1035082,0
                -111.564679,53.1026837,0
                -111.5756653,53.0958811,0
                -111.5924881,53.0886649,0
                -111.7600296,53.0886649,0
                -111.7600296,53.0861906,0
                -111.7840622,53.0934071,0
                -111.9957821,53.1581566,0
                -112.0344059,53.1687571,0
              </coordinates>
            </LinearRing>
          </outerBoundaryIs>
        </Polygon>
      </Placemark>
      <Placemark>
        <name>Whitemud Creek Ward</name>
        <styleUrl>#poly-0288D1-1200-77-nodesc</styleUrl>
        <Polygon>
          <outerBoundaryIs>
            <LinearRing>
              <tessellate>1</tessellate>
              <coordinates>
                -113.5120565,53.5122709,0
                -113.5119924,53.5084815,0
                -113.5177967,53.5084687,0
                -113.5230002,53.5084879,0
                -113.5236547,53.5083794,0
                -113.5245774,53.508105,0
                -113.5261223,53.5076584,0
                -113.529341,53.5074159,0
                -113.5314867,53.5071097,0
                -113.5341046,53.505272,0
                -113.5362503,53.5047105,0
                -113.5388682,53.5040468,0
                -113.5441468,53.5057825,0
                -113.5458204,53.5056038,0
                -113.5513565,53.5036384,0
                -113.5565493,53.5030769,0
                -113.5604117,53.5030769,0
                -113.5661623,53.5034342,0
                -113.5675356,53.5018772,0
                -113.5702822,53.5003201,0
                -113.5717842,53.4985331,0
                -113.5720846,53.4949336,0
                -113.5718701,53.4867887,0
                -113.5710547,53.4850778,0
                -113.5699389,53.4826263,0
                -113.5737154,53.4779782,0
                -113.5793373,53.4713372,0
                -113.5874483,53.4614249,0
                -113.5890362,53.4579754,0
                -113.5898945,53.4515613,0
                -113.5912249,53.4484689,0
                -113.593714,53.4462709,0
                -113.6005375,53.4443539,0
                -113.604357,53.4501046,0
                -113.6066315,53.4528647,0
                -113.6104939,53.4565189,0
                -113.6145279,53.4593808,0
                -113.6172316,53.4611949,0
                -113.6239264,53.4641331,0
                -113.6298487,53.4661769,0
                -113.6380026,53.4682462,0
                -113.6461136,53.4704687,0
                -113.6504481,53.4724101,0
                -113.6551687,53.4755263,0
                -113.6568424,53.4777228,0
                -113.6589453,53.4807109,0
                -113.6595032,53.4837244,0
                -113.6590311,53.5565439,0
                -113.6599323,53.5616422,0
                -113.6607048,53.5659242,0
                -113.6616919,53.5707666,0
                -113.661649,53.5738755,0
                -113.660104,53.5789463,0
                -113.6559841,53.5840164,0
                -113.6512205,53.5882707,0
                -113.6442253,53.5925756,0
                -113.6276171,53.6019225,0
                -113.6300633,53.6028392,0
                -113.6336252,53.6043671,0
                -113.6365435,53.6052584,0
                -113.6408779,53.6059204,0
                -113.6434099,53.6065061,0
                -113.6455557,53.6080847,0
                -113.6473582,53.6083139,0
                -113.6498472,53.6081866,0
                -113.649976,53.6114965,0
                -113.6513493,53.6148825,0
                -113.6543104,53.6179119,0
                -113.658087,53.6202029,0
                -113.6637089,53.6233591,0
                -113.6691162,53.6267187,0
                -113.6746952,53.6300781,0
                -113.6770556,53.6323938,0
                -113.6782143,53.6345314,0
                -113.6799738,53.6383226,0
                -113.6799738,53.6404853,0
                -113.6790297,53.643233,0
                -113.6780368,53.6456321,0
                -113.6776934,53.6484558,0
                -113.6782084,53.651966,0
                -113.6786805,53.655654,0
                -113.6776076,53.6579429,0
                -114.0998088,53.6575106,0
                -114.0996371,53.6428591,0
                -114.1489039,53.6428591,0
                -114.1485606,53.6574088,0
                -114.2232333,53.6575106,0
                -114.2222033,53.7093601,0
                -114.224331,53.7149174,0
                -114.2723962,53.7149174,0
                -114.3383142,53.7336058,0
                -114.398739,53.7514739,0
                -114.4852563,53.7855645,0
                -114.5360681,53.7912436,0
                -114.601986,53.8001663,0
                -114.6637841,53.8180061,0
                -114.7145959,53.825302,0
                -114.7777673,53.847182,0
                -114.8175927,53.8601426,0
                -114.8409387,53.8803854,0
                -114.9065457,53.895602,0
                -114.9587307,53.895602,0
                -115.1430627,53.9442884,0
                -115.2072964,53.9893665,0
                -115.3133508,54.0468138,0
                -115.3833886,54.0669662,0
                -115.4959985,54.0621305,0
                -115.6069241,54.0853371,0
                -115.6704064,54.1338021,0
                -115.7088586,54.1370204,0
                -115.729458,54.1627577,0
                -115.7843896,54.1876755,0
                -116.0343286,54.2117751,0
                -116.064541,54.2527123,0
                -116.1771508,54.2879981,0
                -116.3581349,54.3014659,0
                -117.0887257,53.554347,0
                -118.3796193,53.0554177,0
                -118.3411672,52.6457352,0
                -118.2120778,52.3799639,0
                -116.7151906,51.9757503,0
                -116.4377858,52.2943757,0
                -116.7261769,52.6524006,0
                -115.0469908,52.6399745,0
                -115.0734266,52.6774589,0
                -115.072252,52.7114667,0
                -115.1093308,52.7553316,0
                -115.1488129,52.7632267,0
                -115.1622025,52.786073,0
                -115.1749055,52.7989447,0
                -115.1769654,52.8149253,0
                -115.1543061,52.8111901,0
                -115.1419465,52.8219797,0
                -115.1834885,52.8928758,0
                -115.2191941,52.9057159,0
                -115.2267472,52.9249689,0
                -115.2085511,52.9369718,0
                -115.2119843,52.95497,0
                -115.1992814,52.9713066,0
                -115.2257172,53.032669,0
                -115.2044312,53.0553737,0
                -115.1000611,53.0545482,0
                -115.0825516,53.0611511,0
                -115.0801484,53.0696096,0
                -115.039293,53.0588815,0
                -115.0231568,53.0856967,0
                -114.9816148,53.1028084,0
                -114.9634187,53.097655,0
                -114.9544923,53.1176468,0
                -114.9647919,53.152044,0
                -114.9342362,53.1880593,0
                -114.92119,53.1954644,0
                -114.9338929,53.2094484,0
                -114.907457,53.2378136,0
                -114.8672883,53.2503459,0
                -114.8820512,53.2714986,0
                -114.8724381,53.2799157,0
                -114.8188798,53.3133624,0
                -114.799997,53.3113112,0
                -114.8133866,53.3223864,0
                -114.7934739,53.3338689,0
                -114.7769944,53.3252573,0
                -114.769098,53.3129521,0
                -114.7447221,53.3201306,0
                -114.713823,53.3047467,0
                -114.7007767,53.3191052,0
                -114.6451585,53.3256675,0
                -114.6238724,53.3098753,0
                -114.6060197,53.3090548,0
                -114.5758073,53.3225915,0
                -114.5607011,53.3133624,0
                -114.5349519,53.3135675,0
                -114.5188157,53.3109009,0
                -114.4886033,53.3318187,0
                -114.4594208,53.3439134,0
                -114.4316117,53.3492423,0
                -114.4075791,53.3465779,0
                -114.3941895,53.3594881,0
                -114.4247452,53.3633809,0
                -114.4003693,53.3865253,0
                -114.3809135,53.3930064,0
                -114.3729035,53.4233666,0
                -114.2733399,53.4266398,0
                -114.2997758,53.3949198,0
                -114.2774598,53.3857063,0
                -114.2791764,53.3713702,0
                -114.2534272,53.3721895,0
                -114.2194382,53.3574391,0
                -114.1837327,53.357644,0
                -114.1243378,53.346373,0
                -114.075586,53.3510867,0
                -114.0577332,53.3473977,0
                -114.0464036,53.328128,0
                -114.0299241,53.3234118,0
                -114.0141312,53.3295633,0
                -113.9928452,53.3248472,0
                -113.9794556,53.3412488,0
                -113.9516465,53.3398139,0
                -113.8743408,53.3419978,0
                -113.8342301,53.3619467,0
                -113.8132874,53.3611272,0
                -113.7996681,53.3551143,0
                -113.7885682,53.3590783,0
                -113.7844483,53.3656344,0
                -113.7765519,53.3654296,0
                -113.7720887,53.3590783,0
                -113.7659089,53.3564146,0
                -113.7562378,53.3601856,0
                -113.7528626,53.3693218,0
                -113.7491719,53.3718311,0
                -113.7459103,53.3723432,0
                -113.7215344,53.3708069,0
                -113.712608,53.3718311,0
                -113.7078015,53.3714214,0
                -113.7043683,53.3686561,0
                -113.7042825,53.3644052,0
                -113.7049691,53.3600003,0
                -113.7029092,53.3562097,0
                -113.698446,53.3546216,0
                -113.690292,53.3553388,0
                -113.6863438,53.3594881,0
                -113.6851422,53.3658905,0
                -113.6906631,53.3708897,0
                -113.6925236,53.3761324,0
                -113.6909787,53.3817131,0
                -113.6853139,53.3839145,0
                -113.6782758,53.3843753,0
                -113.6657445,53.381406,0
                -113.6572472,53.3813548,0
                -113.6502091,53.3846824,0
                -113.6451451,53.3912858,0
                -113.6454884,53.3957386,0
                -113.5274765,53.395959,0
                -113.5229274,53.3958439,0
                -113.5115549,53.3963301,0
                -113.4949466,53.4155434,0
                -113.4934017,53.4193543,0
                -113.4928009,53.4295066,0
                -113.491728,53.4355917,0
                -113.4920284,53.4372534,0
                -113.5012123,53.4363842,0
                -113.5082933,53.4353105,0
                -113.5083291,53.4422079,0
                -113.5159977,53.4454109,0
                -113.5229071,53.4471362,0
                -113.5290143,53.4484445,0
                -113.5347649,53.4519202,0
                -113.533971,53.454118,0
                -113.5343572,53.4555618,0
                -113.5348078,53.4563029,0
                -113.5384771,53.460404,0
                -113.5389062,53.4615026,0
                -113.5386702,53.4763192,0
                -113.5318252,53.4763319,0
                -113.5290006,53.4761977,0
                -113.525109,53.4758722,0
                -113.5205814,53.4757828,0
                -113.5086295,53.4757956,0
                -113.5075137,53.4756423,0
                -113.5061618,53.474991,0
                -113.5042306,53.476664,0
                -113.5043854,53.4981817,0
                -113.5024542,53.4981434,0
                -113.5016924,53.4983795,0
                -113.4987206,53.4997197,0
                -113.4976262,53.4998857,0
                -113.4976799,53.5123602,0
                -113.5120565,53.5122709,0
              </coordinates>
            </LinearRing>
          </outerBoundaryIs>
        </Polygon>
      </Placemark>
      <Placemark>
        <name>Windsor Park Ward</name>
        <styleUrl>#poly-7CB342-1200-77-nodesc</styleUrl>
        <Polygon>
          <outerBoundaryIs>
            <LinearRing>
              <tessellate>1</tessellate>
              <coordinates>
                -116.3581349,54.3014659,0
                -116.1771508,54.2879981,0
                -116.064541,54.2527123,0
                -116.0343286,54.2117751,0
                -115.7843896,54.1876755,0
                -115.729458,54.1627577,0
                -115.7088586,54.1370204,0
                -115.6704064,54.1338021,0
                -115.6069241,54.0853371,0
                -115.4959985,54.0621305,0
                -115.3833886,54.0669662,0
                -115.3133508,54.0468138,0
                -115.2072964,53.9893665,0
                -115.1430627,53.9442884,0
                -114.9587307,53.895602,0
                -114.9065457,53.895602,0
                -114.8409387,53.8803854,0
                -114.8175927,53.8601426,0
                -114.7784325,53.8475439,0
                -114.7145959,53.825302,0
                -114.6637841,53.8180061,0
                -114.601986,53.8001663,0
                -114.5360681,53.7912436,0
                -114.4852563,53.7855645,0
                -114.398739,53.7514739,0
                -114.2723962,53.7149174,0
                -114.224331,53.7149174,0
                -114.2222033,53.7093601,0
                -114.2232333,53.6575106,0
                -114.1485606,53.6574088,0
                -114.1489039,53.6428591,0
                -114.0996371,53.6428591,0
                -114.0998088,53.6575106,0
                -113.6776076,53.6579429,0
                -113.6786805,53.655654,0
                -113.6799738,53.6404853,0
                -113.6795874,53.6374065,0
                -113.6770556,53.6323938,0
                -113.6543104,53.6179119,0
                -113.6498472,53.6081866,0
                -113.6434099,53.6065061,0
                -113.6365435,53.6052584,0
                -113.6276171,53.6019225,0
                -113.6512205,53.5882707,0
                -113.6559841,53.5840164,0
                -113.660104,53.5789463,0
                -113.661649,53.5738755,0
                -113.6616919,53.5707666,0
                -113.6590311,53.5565439,0
                -113.6595032,53.4837244,0
                -113.6589453,53.4807109,0
                -113.6551687,53.4755263,0
                -113.6504481,53.4724101,0
                -113.6461136,53.4704687,0
                -113.6298487,53.4661769,0
                -113.6239264,53.4641331,0
                -113.6172316,53.4611949,0
                -113.6104939,53.4565189,0
                -113.6066315,53.4528647,0
                -113.6005375,53.4443539,0
                -113.593714,53.4462709,0
                -113.5912249,53.4484689,0
                -113.5898945,53.4515613,0
                -113.5890362,53.4579754,0
                -113.5874483,53.4614249,0
                -113.5794228,53.4711323,0
                -113.5699389,53.4826263,0
                -113.5718701,53.4867887,0
                -113.5720846,53.4949336,0
                -113.5717842,53.4985331,0
                -113.5702822,53.5003201,0
                -113.5675356,53.5018772,0
                -113.5661623,53.5034342,0
                -113.5604117,53.5030769,0
                -113.5564202,53.5030763,0
                -113.5513565,53.5036384,0
                -113.5458204,53.5056038,0
                -113.5441468,53.5057825,0
                -113.5388682,53.5040468,0
                -113.5341046,53.505272,0
                -113.5314867,53.5071097,0
                -113.5291689,53.5074154,0
                -113.5261223,53.5076584,0
                -113.5230002,53.5084879,0
                -113.5119924,53.5084815,0
                -113.5120565,53.5122709,0
                -113.512078,53.5180953,0
                -113.5207732,53.5181053,0
                -113.5208161,53.5229184,0
                -113.5306759,53.5229694,0
                -113.5307118,53.5308243,0
                -113.5305637,53.5330954,0
                -113.5273665,53.5323046,0
                -113.5204357,53.5310803,0
                -113.5109621,53.5302066,0
                -113.509224,53.5339371,0
                -113.5084408,53.5343452,0
                -113.5083979,53.5601377,0
                -113.5084244,53.5641269,0
                -113.495346,53.5697308,0
                -113.4951156,53.5703455,0
                -113.4921434,53.5704443,0
                -113.4922775,53.571212,0
                -113.4923261,53.5759008,0
                -113.4923625,53.5798225,0
                -113.4922403,53.5802706,0
                -113.4920192,53.5818863,0
                -113.4920192,53.5857842,0
                -113.4920686,53.5989806,0
                -113.491854,53.6154039,0
                -113.4919399,53.6287415,0
                -113.4919399,53.6401922,0
                -113.4917253,53.6431943,0
                -113.4912038,53.6488141,0
                -113.4924054,53.6526295,0
                -113.4960103,53.6562411,0
                -113.5027545,53.6604904,0
                -113.5038209,53.6635651,0
                -113.5036492,53.7116483,0
                -113.5021901,53.7140358,0
                -113.4972119,53.7190135,0
                -113.4959245,53.721756,0
                -113.496182,53.8234093,0
                -113.494122,53.8279182,0
                -113.4903455,53.8314641,0
                -113.4846807,53.8327304,0
                -113.3483451,53.8325807,0
                -113.3422017,53.8330344,0
                -113.3361077,53.8346045,0
                -113.322289,53.8442776,0
                -113.3223384,53.8475712,0
                -113.3222097,53.8569629,0
                -113.3222097,53.8675165,0
                -113.3226323,53.8745485,0
                -113.3227181,53.9145049,0
                -113.3220315,53.9171336,0
                -113.3196282,53.9205204,0
                -113.3152509,53.9240585,0
                -113.2807469,53.9408856,0
                -113.2719922,53.9476549,0
                -113.2665849,53.9489177,0
                -113.1559491,53.9490188,0
                -113.15072,53.9511172,0
                -113.1491685,53.9542717,0
                -113.1491685,54.0106985,0
                -113.147881,54.0131698,0
                -113.1451345,54.0150863,0
                -113.1324315,54.0197762,0
                -113.1266809,54.0209864,0
                -113.0562997,54.0279948,0
                -112.9720998,54.0513813,0
                -112.9578519,54.0624147,0
                -112.9543328,54.0639763,0
                -112.9506421,54.06448,0
                -112.9266095,54.06448,0
                -112.9242921,54.0649334,0
                -112.7975202,54.1002286,0
                -112.4996877,54.1003293,0
                -112.4934286,54.1010109,0
                -112.4885297,54.1033489,0
                -112.4806333,54.1189969,0
                -112.4757409,54.1217636,0
                -112.5037979,54.7477037,0
                -111.9723343,54.7619686,0
                -111.7065763,56.1879426,0
                -116.0736418,56.1665391,0
                -116.3581349,54.3014659,0
              </coordinates>
            </LinearRing>
          </outerBoundaryIs>
        </Polygon>
      </Placemark>
    </Folder>
  </Document>
</kml>
